[
    {
        "CCSDS_OMM_VERS": "3.0",
        "COMMENT": "GENERATED VIA SPACE-TRACK.ORG API",
        "CREATION_DATE": "2025-04-13T22:56:19",
        "ORIGINATOR": "18 SPCS",
        "OBJECT_NAME": "BEIDOU 3 G2",
        "OBJECT_ID": "2020-017A",
        "CENTER_NAME": "EARTH",
        "REF_FRAME": "TEME",
        "TIME_SYSTEM": "UTC",
        "MEAN_ELEMENT_THEORY": "SGP4",
        "EPOCH": "2025-04-13T21:47:09.617280",
        "MEAN_MOTION": "1.00271683",
        "ECCENTRICITY": "0.00030080",
        "INCLINATION": "2.7638",
        "RA_OF_ASC_NODE": "39.0019",
        "ARG_OF_PERICENTER": "337.6183",
        "MEAN_ANOMALY": "232.5340",
        "EPHEMERIS_TYPE": "0",
        "CLASSIFICATION_TYPE": "U",
        "NORAD_CAT_ID": "45344",
        "ELEMENT_SET_NO": "999",
        "REV_AT_EPOCH": "1896",
        "BSTAR": "0.00000000000000",
        "MEAN_MOTION_DOT": "-0.00000133",
        "MEAN_MOTION_DDOT": "0.0000000000000",
        "SEMIMAJOR_AXIS": "42164.761",
        "PERIOD": "1436.098",
        "APOAPSIS": "35799.309",
        "PERIAPSIS": "35773.942",
        "OBJECT_TYPE": "PAYLOAD",
        "RCS_SIZE": "LARGE",
        "COUNTRY_CODE": "PRC",
        "LAUNCH_DATE": "2020-03-09",
        "SITE": "XSC",
        "DECAY_DATE": null,
        "FILE": "4701201",
        "GP_ID": "285520492",
        "TLE_LINE0": "0 BEIDOU 3 G2",
        "TLE_LINE1": "1 45344U 20017A   25103.90775020 -.00000133  00000-0  00000+0 0  9998",
        "TLE_LINE2": "2 45344   2.7638  39.0019 0003008 337.6183 232.5340  1.00271683 18963"
    }
]